NORAD_CAT_ID,OBJECT_NAME,OBJECT_TYPE,EPOCH,MEAN_MOTION,ECCENTRICITY,INCLINATION,RA_OF_ASC_NODE,ARG_OF_PERICENTER,MEAN_ANOMALY,BSTAR,MEAN_MOTION_DOT,MEAN_MOTION_DDOT,TLE_LINE0,TLE_LINE1,TLE_LINE2,SEMIMAJOR_AXIS,PERIOD,APOGEE,PERIGEE,DECAYED
55433.0,STARLINK-5570,PAYLOAD,2024-05-09 20:05:47,14.98328301,0.0003053,69.9997,350.7692,273.0904,86.9906,0.00017885,2.042e-05,0.0,0 STARLINK-5570,1 55433U 23014AU  24130.83735273  .00002042  00000-0  17885-3 0  9998,2 55433  69.9997 350.7692 0003053 273.0904  86.9906 14.98328301 69944,6950.198,96.107,574.185,569.941,0.0
55433.0,STARLINK-5570,PAYLOAD,2024-05-09 21:41:55,14.9833039,0.0003068,69.9995,350.6009,272.6384,87.4423,0.00017271,1.968e-05,0.0,0 STARLINK-5570,1 55433U 23014AU  24130.90411171  .00001968  00000-0  17271-3 0  9999,2 55433  69.9995 350.6009 0003068 272.6384  87.4423 14.98330390 70893,6950.192,96.107,574.189,569.924,0.0
55433.0,STARLINK-5570,PAYLOAD,2024-05-10 13:43:16,14.98332821,0.0002953,69.9997,348.9177,272.5341,87.548,3.5532e-05,3.31e-06,0.0,0 STARLINK-5570,1 55433U 23014AU  24131.57171415  .00000331  00000-0  35532-4 0  9991,2 55433  69.9997 348.9177 0002953 272.5341  87.5480 14.98332821 70991,6950.184,96.107,574.102,569.997,0.0
55433.0,STARLINK-5570,PAYLOAD,2024-05-10 21:43:56,14.98336149,0.0002944,69.9996,348.0762,272.144,87.9382,7.4967e-05,8.02e-06,0.0,0 STARLINK-5570,1 55433U 23014AU  24131.90551020  .00000802  00000-0  74967-4 0  9990,2 55433  69.9996 348.0762 0002944 272.1440  87.9382 14.98336149 71046,6950.174,96.107,574.085,569.993,0.0
55433.0,STARLINK-5570,PAYLOAD,2024-05-11 00:56:11,14.98343744,0.000292,69.9999,347.7396,270.7752,89.3072,0.00038204,4.47e-05,0.0,0 STARLINK-5570,1 55433U 23014AU  24132.03902699  .00004470  00000-0  38204-3 0  9995,2 55433  69.9999 347.7396 0002920 270.7752  89.3072 14.98343744 70121,6950.15,96.106,574.045,569.986,0.0
55433.0,STARLINK-5570,PAYLOAD,2024-05-11 13:45:13,14.98365981,0.0003348,69.9972,346.3903,269.7729,90.3046,0.0003885,4.55e-05,0.0,0 STARLINK-5570,1 55433U 23014AU  24132.57307699  .00004550  00000-0  38850-3 0  9999,2 55433  69.9972 346.3903 0003348 269.7729  90.3046 14.98365981 70207,6950.082,96.105,574.274,569.62,0.0
55433.0,STARLINK-5570,PAYLOAD,2024-05-11 20:09:47,14.98339155,0.0002799,70.0009,345.7196,271.2184,88.8654,-4.6873e-05,-6.52e-06,0.0,0 STARLINK-5570,1 55433U 23014AU  24132.84013791 -.00000652  00000-0 -46873-4 0  9992,2 55433  70.0009 345.7196 0002799 271.2184  88.8654 14.98339155 70245,6950.165,96.106,573.975,570.084,0.0
55433.0,STARLINK-5570,PAYLOAD,2024-05-11 21:45:55,14.98343405,0.0002674,70.0012,345.551,270.5707,89.5146,-0.00048446,-5.87e-05,0.0,0 STARLINK-5570,1 55433U 23014AU  24132.90689395 -.00005870  00000-0 -48446-3 0  9992,2 55433  70.0012 345.5510 0002674 270.5707  89.5146 14.98343405 71194,6950.151,96.106,573.875,570.158,0.0
55433.0,STARLINK-5570,PAYLOAD,2024-05-12 07:22:46,14.9825305,0.0002438,70.0014,344.5406,272.4712,87.6168,-0.002103,-0.00025045,0.0,0 STARLINK-5570,1 55433U 23014AU  24133.30747734 -.00025045  00000-0 -21030-2 0  9994,2 55433  70.0014 344.5406 0002438 272.4712  87.6168 14.98253050 70316,6950.431,96.112,573.99,570.601,0.0
55433.0,STARLINK-5570,PAYLOAD,2024-05-12 13:47:20,14.98202211,0.0003118,70.001,343.8673,265.2456,94.8347,-0.0016764,-0.00019973,0.0,0 STARLINK-5570,1 55433U 23014AU  24133.57454062 -.00019973  00000-0 -16764-2 0  9993,2 55433  70.0010 343.8673 0003118 265.2456  94.8347 14.98202211 71291,6950.588,96.115,574.62,570.286,0.0
55433.0,STARLINK-5570,PAYLOAD,2024-05-12 20:11:52,14.98273777,0.0002842,70.0013,343.1941,271.1277,88.9556,0.003561,0.00042593,0.0,0 STARLINK-5570,1 55433U 23014AU  24133.84158328  .00042593  00000-0  35610-2 0  9992,2 55433  70.0013 343.1941 0002842 271.1277  88.9556 14.98273777 70396,6950.367,96.111,574.207,570.256,0.0
55433.0,STARLINK-5570,PAYLOAD,2024-05-12 21:48:01,14.98278053,0.0002684,70.0012,343.0257,272.8625,87.2227,0.003511,0.00041994,0.0,0 STARLINK-5570,1 55433U 23014AU  24133.90834530  .00041994  00000-0  35110-2 0  9994,2 55433  70.0012 343.0257 0002684 272.8625  87.2227 14.98278053 71348,6950.354,96.11,574.084,570.353,0.0
55433.0,STARLINK-5570,PAYLOAD,2024-05-13 13:49:21,14.98338139,0.0002951,70.0007,341.3409,271.578,88.5041,0.0012731,0.00015133,0.0,0 STARLINK-5570,1 55433U 23014AU  24134.57594864  .00015133  00000-0  12731-2 0  9991,2 55433  70.0007 341.3409 0002951 271.5780  88.5041 14.98338139 71448,6950.168,96.106,574.084,569.982,0.0
55433.0,STARLINK-5570,PAYLOAD,2024-05-13 20:13:54,14.98342345,0.0002981,70.0008,340.6685,274.198,85.8838,0.0011211,0.00013313,0.0,0 STARLINK-5570,1 55433U 23014AU  24134.84298729  .00013313  00000-0  11211-2 0  9992,2 55433  70.0008 340.6685 0002981 274.1980  85.8838 14.98342345 70549,6950.155,96.106,574.092,569.948,0.0
55433.0,STARLINK-5570,PAYLOAD,2024-05-14 07:26:50,14.98350989,0.0003004,70.0008,339.4903,273.4959,86.5856,0.0009297,0.00011024,0.0,0 STARLINK-5570,1 55433U 23014AU  24135.31030214  .00011024  00000-0  92970-3 0  9997,2 55433  70.0008 339.4903 0003004 273.4959  86.5856 14.98350989 71556,6950.128,96.106,574.081,569.905,0.0
55433.0,STARLINK-5570,PAYLOAD,2024-05-14 20:15:53,14.9836405,0.0003026,70.0008,338.1437,273.7047,86.3766,0.0010533,0.00012508,0.0,0 STARLINK-5570,1 55433U 23014AU  24135.84437254  .00012508  00000-0  10533-2 0  9992,2 55433  70.0008 338.1437 0003026 273.7047  86.3766 14.98364050 70695,6950.088,96.105,574.056,569.849,0.0
55433.0,STARLINK-5570,PAYLOAD,2024-05-14 21:52:01,14.98365826,0.0003023,70.0008,337.9753,273.652,86.4293,0.00107,0.00012709,0.0,0 STARLINK-5570,1 55433U 23014AU  24135.91113099  .00012709  00000-0  10700-2 0  9997,2 55433  70.0008 337.9753 0003023 273.6520  86.4293 14.98365826 71649,6950.082,96.105,574.048,569.846,0.0
55433.0,STARLINK-5570,PAYLOAD,2024-05-15 13:53:21,14.98367125,0.0002528,70.0019,336.292,275.2522,84.8349,0.0007469,8.839e-05,0.0,0 STARLINK-5570,1 55433U 23014AU  24136.57871837  .00008839  00000-0  74690-3 0  9999,2 55433  70.0019 336.2920 0002528 275.2522  84.8349 14.98367125 71747,6950.078,96.105,573.7,570.186,0.0
55433.0,STARLINK-5570,PAYLOAD,2024-05-15 20:17:53,14.9836166,0.000281,70.0015,335.6184,274.9867,85.0971,0.0003375,3.94e-05,0.0,0 STARLINK-5570,1 55433U 23014AU  24136.84575426  .00003940  00000-0  33750-3 0  9994,2 55433  70.0015 335.6184 0002810 274.9867  85.0971 14.98361660 70842,6950.095,96.105,573.913,570.007,0.0
55433.0,STARLINK-5570,PAYLOAD,2024-05-15 21:54:01,14.98363155,0.0002794,70.0013,335.45,274.9105,85.1735,0.00038823,4.546e-05,0.0,0 STARLINK-5570,1 55433U 23014AU  24136.91251272  .00004546  00000-0  38823-3 0  9991,2 55433  70.0013 335.4500 0002794 274.9105  85.1735 14.98363155 71791,6950.09,96.105,573.897,570.014,0.0
55433.0,STARLINK-5570,PAYLOAD,2024-05-16 12:19:13,14.98357205,0.0002365,70.0015,333.9351,275.8311,84.2578,8.1745e-05,8.83e-06,0.0,0 STARLINK-5570,1 55433U 23014AU  24137.51334596  .00000883  00000-0  81745-4 0  9991,2 55433  70.0015 333.9351 0002365 275.8311  84.2578 14.98357205 70943,6950.109,96.105,573.617,570.33,0.0
55433.0,STARLINK-5570,PAYLOAD,2024-05-16 23:32:09,14.98346532,0.0002407,70.0031,332.7588,267.5897,92.4987,0.00023809,2.75e-05,0.0,0 STARLINK-5570,1 55433U 23014AU  24137.98066458  .00002750  00000-0  23809-3 0  9992,2 55433  70.0031 332.7588 0002407 267.5897  92.4987 14.98346532 71019,6950.142,96.106,573.68,570.334,0.0
55433.0,STARLINK-5570,PAYLOAD,2024-05-17 18:45:46,14.98331266,0.0002291,70.0019,330.7371,273.8223,86.2674,-0.00021021,-2.6e-05,0.0,0 STARLINK-5570,1 55433U 23014AU  24138.78178663 -.00002600  00000-0 -21021-3 0  9993,2 55433  70.0019 330.7371 0002291 273.8223  86.2674 14.98331266 71132,6950.189,96.107,573.646,570.462,0.0
55433.0,STARLINK-5570,PAYLOAD,2024-05-17 21:58:02,14.9832711,0.0002395,70.0024,330.4013,267.8433,92.2452,-0.00022699,-2.8e-05,0.0,0 STARLINK-5570,1 55433U 23014AU  24138.91531055 -.00002800  00000-0 -22699-3 0  9990,2 55433  70.0024 330.4013 0002395 267.8433  92.2452 14.98327110 72099,6950.202,96.107,573.731,570.402,0.0
55433.0,STARLINK-5570,PAYLOAD,2024-05-18 05:58:42,14.98342806,0.0002894,69.9981,329.5593,264.4123,95.6706,-0.00010114,-1.3e-05,0.0,0 STARLINK-5570,1 55433U 23014AU  24139.24910349 -.00001300  00000-0 -10114-3 0  9997,2 55433  69.9981 329.5593 0002894 264.4123  95.6706 14.98342806 71203,6950.153,96.106,574.03,570.007,0.0
55433.0,STARLINK-5570,PAYLOAD,2024-05-18 13:59:22,14.98337775,0.0002862,69.9979,328.7158,272.8994,87.1838,8.7668e-05,9.53e-06,0.0,0 STARLINK-5570,1 55433U 23014AU  24139.58290186  .00000953  00000-0  87668-4 0  9994,2 55433  69.9979 328.7158 0002862 272.8994  87.1838 14.98337775 72192,6950.169,96.107,574.023,570.045,0.0
55433.0,STARLINK-5570,PAYLOAD,2024-05-18 20:23:53,14.98359548,0.0002982,70.0,328.0433,274.5958,85.486,-0.00034111,-4.164e-05,0.0,0 STARLINK-5570,1 55433U 23014AU  24139.84992843 -.00004164  00000-0 -34111-3 0  9996,2 55433  70.0000 328.0433 0002982 274.5958  85.4860 14.98359548 71299,6950.102,96.105,574.039,569.894,0.0
55433.0,STARLINK-5570,PAYLOAD,2024-05-18 22:00:01,14.98364961,0.0003059,70.0002,327.875,269.9659,90.1149,-0.00047427,-5.752e-05,0.0,0 STARLINK-5570,1 55433U 23014AU  24139.91668369 -.00005752  00000-0 -47427-3 0  9995,2 55433  70.0002 327.8750 0003059 269.9659  90.1149 14.98364961 72246,6950.085,96.105,574.076,569.824,0.0
55433.0,STARLINK-5570,PAYLOAD,2024-05-19 14:01:24,14.98324818,0.0003197,70.0001,326.1917,268.9308,91.1485,-4.7221e-05,-6.56e-06,0.0,0 STARLINK-5570,1 55433U 23014AU  24140.58430899 -.00000656  00000-0 -47221-4 0  9996,2 55433  70.0001 326.1917 0003197 268.9308  91.1485 14.98324818 72347,6950.209,96.107,574.296,569.852,0.0
55433.0,STARLINK-5570,PAYLOAD,2024-05-20 12:27:17,14.9833495,0.0003371,70.0001,323.8358,268.6734,91.4039,0.00038908,4.553e-05,0.0,0 STARLINK-5570,1 55433U 23014AU  24141.51894859  .00004553  00000-0  38908-3 0  9999,2 55433  70.0001 323.8358 0003371 268.6734  91.4039 14.98334950 71541,6950.178,96.107,574.385,569.7,0.0
